start=new Date('2021-11-21T00:00:00.000Z').valueOf();
sats=[{"PERIOD":"95.593","CLASSIFICATION_TYPE":"U","DECAY_DATE":null,"GP_ID":"190139641","MEAN_MOTION":"15.06388702","SEMIMAJOR_AXIS":"6925.383","MEAN_MOTION_DOT":"-0.00000714","ARG_OF_PERICENTER":"59.2924","OBJECT_NAME":"STARLINK-1364","EPHEMERIS_TYPE":"0","MEAN_MOTION_DDOT":"0.0000000000000","INCLINATION":"53.0547","ELEMENT_SET_NO":"999","CENTER_NAME":"EARTH","APOAPSIS":"548.567","FILE":"3220049","MEAN_ELEMENT_THEORY":"SGP4","TLE_LINE1":"1 45589U 20025BL  21324.39068652 -.00000714  00000-0 -29046-4 0  9990","SITE":"AFETR","BSTAR":"-0.00002904600000","OBJECT_TYPE":"PAYLOAD","RCS_SIZE":"LARGE","RA_OF_ASC_NODE":"285.9689","TIME_SYSTEM":"UTC","ECCENTRICITY":"0.00019050","NORAD_CAT_ID":"45589","OBJECT_ID":"2020-025BL","REV_AT_EPOCH":"8882","REF_FRAME":"TEME","MEAN_ANOMALY":"300.8252","COUNTRY_CODE":"US","PERIAPSIS":"545.929","LAUNCH_DATE":"2020-04-22","TLE_LINE2":"2 45589  53.0547 285.9689 0001905  59.2924 300.8252 15.06388702 88826","EPOCH":"2021-11-20T09:22:35.315328"},{"LAUNCH_DATE":"2020-04-22","COUNTRY_CODE":"US","PERIAPSIS":"546.086","EPOCH":"2021-11-20T09:45:08.842176","TLE_LINE2":"2 45590  53.0554 315.8999 0001678  67.3139 292.8027 15.06388801 88424","REV_AT_EPOCH":"8842","OBJECT_ID":"2020-025BM","REF_FRAME":"TEME","MEAN_ANOMALY":"292.8027","TIME_SYSTEM":"UTC","NORAD_CAT_ID":"45590","ECCENTRICITY":"0.00016780","OBJECT_TYPE":"PAYLOAD","RA_OF_ASC_NODE":"315.8999","RCS_SIZE":"LARGE","MEAN_ELEMENT_THEORY":"SGP4","BSTAR":"-0.00001666500000","TLE_LINE1":"1 45590U 20025BM  21324.40635234 -.00000530  00000-0 -16665-4 0  9999","SITE":"AFETR","MEAN_MOTION_DDOT":"0.0000000000000","ELEMENT_SET_NO":"999","CENTER_NAME":"EARTH","FILE":"3220049","APOAPSIS":"548.410","INCLINATION":"53.0554","SEMIMAJOR_AXIS":"6925.383","MEAN_MOTION_DOT":"-0.00000530","MEAN_MOTION":"15.06388801","EPHEMERIS_TYPE":"0","ARG_OF_PERICENTER":"67.3139","OBJECT_NAME":"STARLINK-1365","CLASSIFICATION_TYPE":"U","PERIOD":"95.593","GP_ID":"190139891","DECAY_DATE":null},{"DECAY_DATE":null,"GP_ID":"190146283","PERIOD":"95.592","CLASSIFICATION_TYPE":"U","OBJECT_NAME":"STARLINK-1441","ARG_OF_PERICENTER":"60.5204","EPHEMERIS_TYPE":"0","MEAN_MOTION":"15.06398428","MEAN_MOTION_DOT":"0.00002138","SEMIMAJOR_AXIS":"6925.353","INCLINATION":"53.0542","FILE":"3220162","APOAPSIS":"548.434","ELEMENT_SET_NO":"999","CENTER_NAME":"EARTH","MEAN_MOTION_DDOT":"0.0000000000000","SITE":"AFETR","TLE_LINE1":"1 45658U 20035B   21324.57958575  .00002138  00000-0  16239-3 0  9999","BSTAR":"0.00016239000000","MEAN_ELEMENT_THEORY":"SGP4","RCS_SIZE":"LARGE","RA_OF_ASC_NODE":"275.1198","OBJECT_TYPE":"PAYLOAD","ECCENTRICITY":"0.00017560","NORAD_CAT_ID":"45658","TIME_SYSTEM":"UTC","MEAN_ANOMALY":"299.5960","REF_FRAME":"TEME","OBJECT_ID":"2020-035B","REV_AT_EPOCH":"8167","TLE_LINE2":"2 45658  53.0542 275.1198 0001756  60.5204 299.5960 15.06398428 81676","EPOCH":"2021-11-20T13:54:36.208800","PERIAPSIS":"546.002","COUNTRY_CODE":"US","LAUNCH_DATE":"2020-06-04"},{"ECCENTRICITY":"0.00008620","NORAD_CAT_ID":"45659","TIME_SYSTEM":"UTC","RCS_SIZE":"LARGE","RA_OF_ASC_NODE":"276.5493","OBJECT_TYPE":"PAYLOAD","TLE_LINE2":"2 45659  53.0587 276.5493 0000862  16.5946 343.5071 15.06401798 82028","EPOCH":"2021-11-20T06:00:52.278912","PERIAPSIS":"546.611","COUNTRY_CODE":"US","LAUNCH_DATE":"2020-06-04","MEAN_ANOMALY":"343.5071","REF_FRAME":"TEME","OBJECT_ID":"2020-035C","REV_AT_EPOCH":"8202","OBJECT_NAME":"STARLINK-1442","ARG_OF_PERICENTER":"16.5946","EPHEMERIS_TYPE":"0","MEAN_MOTION":"15.06401798","MEAN_MOTION_DOT":"0.00000089","SEMIMAJOR_AXIS":"6925.343","DECAY_DATE":null,"GP_ID":"190140149","PERIOD":"95.592","CLASSIFICATION_TYPE":"U","SITE":"AFETR","TLE_LINE1":"1 45659U 20035C   21324.25060508  .00000089  00000-0  24839-4 0  9994","BSTAR":"0.00002483900000","MEAN_ELEMENT_THEORY":"SGP4","INCLINATION":"53.0587","FILE":"3220049","APOAPSIS":"547.805","CENTER_NAME":"EARTH","ELEMENT_SET_NO":"999","MEAN_MOTION_DDOT":"0.0000000000000"},{"OBJECT_ID":"2020-035D","REV_AT_EPOCH":"8205","MEAN_ANOMALY":"283.3002","REF_FRAME":"TEME","PERIAPSIS":"546.066","COUNTRY_CODE":"US","LAUNCH_DATE":"2020-06-04","TLE_LINE2":"2 45660  53.0542 275.9733 0001694  76.8176 283.3002 15.06391669 82052","EPOCH":"2021-11-20T09:23:54.662496","OBJECT_TYPE":"PAYLOAD","RCS_SIZE":"LARGE","RA_OF_ASC_NODE":"275.9733","TIME_SYSTEM":"UTC","ECCENTRICITY":"0.00016940","NORAD_CAT_ID":"45660","MEAN_MOTION_DDOT":"0.0000000000000","INCLINATION":"53.0542","APOAPSIS":"548.412","FILE":"3220049","CENTER_NAME":"EARTH","ELEMENT_SET_NO":"999","MEAN_ELEMENT_THEORY":"SGP4","SITE":"AFETR","TLE_LINE1":"1 45660U 20035D   21324.39160489  .00000334  00000-0  41357-4 0  9997","BSTAR":"0.00004135700000","PERIOD":"95.593","CLASSIFICATION_TYPE":"U","DECAY_DATE":null,"GP_ID":"190140899","MEAN_MOTION":"15.06391669","MEAN_MOTION_DOT":"0.00000334","SEMIMAJOR_AXIS":"6925.374","OBJECT_NAME":"STARLINK-1443","ARG_OF_PERICENTER":"76.8176","EPHEMERIS_TYPE":"0"},{"MEAN_MOTION_DDOT":"0.0000000000000","FILE":"3220049","APOAPSIS":"548.568","ELEMENT_SET_NO":"999","CENTER_NAME":"EARTH","INCLINATION":"53.0532","MEAN_ELEMENT_THEORY":"SGP4","BSTAR":"0.00001430500000","SITE":"AFETR","TLE_LINE1":"1 45661U 20035E   21324.34368953 -.00000069  00000-0  14305-4 0  9998","CLASSIFICATION_TYPE":"U","PERIOD":"95.593","GP_ID":"190139148","DECAY_DATE":null,"MEAN_MOTION_DOT":"-0.00000069","SEMIMAJOR_AXIS":"6925.383","MEAN_MOTION":"15.06388786","EPHEMERIS_TYPE":"0","OBJECT_NAME":"STARLINK-1444","ARG_OF_PERICENTER":"58.1766","REV_AT_EPOCH":"8204","OBJECT_ID":"2020-035E","MEAN_ANOMALY":"301.9408","REF_FRAME":"TEME","LAUNCH_DATE":"2020-06-04","PERIAPSIS":"545.928","COUNTRY_CODE":"US","EPOCH":"2021-11-20T08:14:54.775392","TLE_LINE2":"2 45661  53.0532 276.1841 0001906  58.1766 301.9408 15.06388786 82041","OBJECT_TYPE":"PAYLOAD","RA_OF_ASC_NODE":"276.1841","RCS_SIZE":"LARGE","TIME_SYSTEM":"UTC","NORAD_CAT_ID":"45661","ECCENTRICITY":"0.00019060"},{"REF_FRAME":"TEME","MEAN_ANOMALY":"293.1608","REV_AT_EPOCH":"8204","OBJECT_ID":"2020-035F","EPOCH":"2021-11-20T08:36:08.235360","TLE_LINE2":"2 45662  53.0536 276.1168 0001613  66.9550 293.1608 15.06387659 82043","LAUNCH_DATE":"2020-06-04","COUNTRY_CODE":"US","PERIAPSIS":"546.134","RA_OF_ASC_NODE":"276.1168","RCS_SIZE":"LARGE","OBJECT_TYPE":"PAYLOAD","NORAD_CAT_ID":"45662","ECCENTRICITY":"0.00016130","TIME_SYSTEM":"UTC","ELEMENT_SET_NO":"999","CENTER_NAME":"EARTH","FILE":"3220049","APOAPSIS":"548.368","INCLINATION":"53.0536","MEAN_MOTION_DDOT":"0.0000000000000","BSTAR":"-0.00000703880000","TLE_LINE1":"1 45662U 20035F   21324.35842865 -.00000386  00000-0 -70388-5 0  9996","SITE":"AFETR","MEAN_ELEMENT_THEORY":"SGP4","GP_ID":"190139398","DECAY_DATE":null,"CLASSIFICATION_TYPE":"U","PERIOD":"95.593","EPHEMERIS_TYPE":"0","ARG_OF_PERICENTER":"66.9550","OBJECT_NAME":"STARLINK-1445","SEMIMAJOR_AXIS":"6925.386","MEAN_MOTION_DOT":"-0.00000386","MEAN_MOTION":"15.06387659"},{"MEAN_MOTION_DDOT":"0.0000000000000","INCLINATION":"53.0543","FILE":"3220049","APOAPSIS":"548.576","ELEMENT_SET_NO":"999","CENTER_NAME":"EARTH","MEAN_ELEMENT_THEORY":"SGP4","SITE":"AFETR","TLE_LINE1":"1 45663U 20035G   21324.29577266 -.00000270  00000-0  77623-6 0  9991","BSTAR":"0.00000077623000","PERIOD":"95.593","CLASSIFICATION_TYPE":"U","DECAY_DATE":null,"GP_ID":"190140649","MEAN_MOTION":"15.06388474","MEAN_MOTION_DOT":"-0.00000270","SEMIMAJOR_AXIS":"6925.384","OBJECT_NAME":"STARLINK-1446","ARG_OF_PERICENTER":"60.6691","EPHEMERIS_TYPE":"0","OBJECT_ID":"2020-035G","REV_AT_EPOCH":"8203","MEAN_ANOMALY":"299.4489","REF_FRAME":"TEME","PERIAPSIS":"545.921","COUNTRY_CODE":"US","LAUNCH_DATE":"2020-06-04","TLE_LINE2":"2 45663  53.0543 276.3939 0001917  60.6691 299.4489 15.06388474 82035","EPOCH":"2021-11-20T07:05:54.757824","OBJECT_TYPE":"PAYLOAD","RCS_SIZE":"LARGE","RA_OF_ASC_NODE":"276.3939","TIME_SYSTEM":"UTC","ECCENTRICITY":"0.00019170","NORAD_CAT_ID":"45663"},{"MEAN_ELEMENT_THEORY":"SGP4","BSTAR":"-0.00000767210000","SITE":"AFETR","TLE_LINE1":"1 45665U 20035J   21324.39529182 -.00000396  00000-0 -76721-5 0  9995","MEAN_MOTION_DDOT":"0.0000000000000","FILE":"3220049","APOAPSIS":"548.462","CENTER_NAME":"EARTH","ELEMENT_SET_NO":"999","INCLINATION":"53.0538","MEAN_MOTION_DOT":"-0.00000396","SEMIMAJOR_AXIS":"6925.392","MEAN_MOTION":"15.06385768","EPHEMERIS_TYPE":"0","OBJECT_NAME":"STARLINK-1448","ARG_OF_PERICENTER":"61.2087","CLASSIFICATION_TYPE":"U","PERIOD":"95.593","GP_ID":"190140400","DECAY_DATE":null,"LAUNCH_DATE":"2020-06-04","PERIAPSIS":"546.052","COUNTRY_CODE":"US","EPOCH":"2021-11-20T09:29:13.213248","TLE_LINE2":"2 45665  53.0538 275.9440 0001740  61.2087 298.9076 15.06385768 82043","REV_AT_EPOCH":"8204","OBJECT_ID":"2020-035J","MEAN_ANOMALY":"298.9076","REF_FRAME":"TEME","TIME_SYSTEM":"UTC","NORAD_CAT_ID":"45665","ECCENTRICITY":"0.00017400","OBJECT_TYPE":"PAYLOAD","RA_OF_ASC_NODE":"275.9440","RCS_SIZE":"LARGE"},{"RA_OF_ASC_NODE":"276.2165","RCS_SIZE":"LARGE","OBJECT_TYPE":"PAYLOAD","NORAD_CAT_ID":"45666","ECCENTRICITY":"0.00017830","TIME_SYSTEM":"UTC","REF_FRAME":"TEME","MEAN_ANOMALY":"303.5465","REV_AT_EPOCH":"8203","OBJECT_ID":"2020-035K","EPOCH":"2021-11-20T08:02:55.238784","TLE_LINE2":"2 45666  53.0551 276.2165 0001783  56.5694 303.5465 15.06402918 82036","LAUNCH_DATE":"2020-06-04","COUNTRY_CODE":"US","PERIAPSIS":"545.970","GP_ID":"190139648","DECAY_DATE":null,"CLASSIFICATION_TYPE":"U","PERIOD":"95.592","EPHEMERIS_TYPE":"0","ARG_OF_PERICENTER":"56.5694","OBJECT_NAME":"STARLINK-1449","SEMIMAJOR_AXIS":"6925.340","MEAN_MOTION_DOT":"-0.00000083","MEAN_MOTION":"15.06402918","ELEMENT_SET_NO":"999","CENTER_NAME":"EARTH","APOAPSIS":"548.439","FILE":"3220049","INCLINATION":"53.0551","MEAN_MOTION_DDOT":"0.0000000000000","BSTAR":"0.00001334500000","TLE_LINE1":"1 45666U 20035K   21324.33536156 -.00000083  00000-0  13345-4 0  9993","SITE":"AFETR","MEAN_ELEMENT_THEORY":"SGP4"}];
